{
  "type": "FeatureCollection",
  "features": [
    {
      "type": "Feature",
      "properties": {
        "norad_id": 40938,
        "name": "BEIDOU-3S IGSO-2S (C56)",
        "group": "gnss",
        "lat": 49.16164356353764,
        "lon": 0.29182498785033145,
        "alt_km": 35791.32865289685,
        "timestamp": "2025-12-20T11:30:28.620044+00:00",
        "meta_object_name": "BEIDOU-3S IGSO-2S (C56)",
        "meta_object_id": "2015-053A",
        "meta_epoch": "2025-12-19T17:08:36.001248",
        "meta_mean_motion": 1.00268614,
        "meta_eccentricity": 0.0060519,
        "meta_inclination": 49.4997,
        "meta_ra_of_asc_node": 260.9235,
        "meta_arg_of_pericenter": 188.6334,
        "meta_mean_anomaly": 352.0393,
        "meta_ephemeris_type": 0,
        "meta_classification_type": "U",
        "meta_norad_cat_id": 40938,
        "meta_element_set_no": 999,
        "meta_rev_at_epoch": 3755,
        "meta_bstar": 0,
        "meta_mean_motion_dot": -1.11e-06,
        "meta_mean_motion_ddot": 0,
        "tle_line1": "1 40938U 15053A   25353.71430557 -.00000111  00000+0  00000+0 0  9990",
        "tle_line2": "2 40938  49.4997 260.9235 0060519 188.6334 352.0393  1.00268614 37552"
      },
      "geometry": {
        "type": "Point",
        "coordinates": [
          0.29182498785033145,
          49.16164356353764
        ]
      }
    },
    {
      "type": "Feature",
      "properties": {
        "norad_id": 41019,
        "name": "GPS BIIF-11 (PRN 10)",
        "group": "gnss",
        "lat": 35.81153338263686,
        "lon": -170.40598601900177,
        "alt_km": 20197.693211084126,
        "timestamp": "2025-12-20T11:30:28.620055+00:00",
        "meta_object_name": "GPS BIIF-11 (PRN 10)",
        "meta_object_id": "2015-062A",
        "meta_epoch": "2025-12-18T07:03:43.989696",
        "meta_mean_motion": 2.00567221,
        "meta_eccentricity": 0.0110964,
        "meta_inclination": 56.8362,
        "meta_ra_of_asc_node": 37.7874,
        "meta_arg_of_pericenter": 230.0867,
        "meta_mean_anomaly": 128.9943,
        "meta_ephemeris_type": 0,
        "meta_classification_type": "U",
        "meta_norad_cat_id": 41019,
        "meta_element_set_no": 999,
        "meta_rev_at_epoch": 7420,
        "meta_bstar": 0,
        "meta_mean_motion_dot": -6.9e-07,
        "meta_mean_motion_ddot": 0,
        "tle_line1": "1 41019U 15062A   25352.29425914 -.00000069  00000+0  00000+0 0  9996",
        "tle_line2": "2 41019  56.8362  37.7874 0110964 230.0867 128.9943  2.00567221 74204"
      },
      "geometry": {
        "type": "Point",
        "coordinates": [
          -170.40598601900177,
          35.81153338263686
        ]
      }
    },
    {
      "type": "Feature",
      "properties": {
        "norad_id": 41028,
        "name": "GSAT-15 (GAGAN/PRN 139)",
        "group": "gnss",
        "lat": 0.022982408732114167,
        "lon": -4.554583944333681,
        "alt_km": 35791.13009190581,
        "timestamp": "2025-12-20T11:30:28.620070+00:00",
        "meta_object_name": "GSAT-15 (GAGAN/PRN 139)",
        "meta_object_id": "2015-065A",
        "meta_epoch": "2025-12-20T03:24:05.092704",
        "meta_mean_motion": 1.0027245,
        "meta_eccentricity": 0.0002411,
        "meta_inclination": 0.0303,
        "meta_ra_of_asc_node": 271.3406,
        "meta_arg_of_pericenter": 323.0926,
        "meta_mean_anomaly": 359.0664,
        "meta_ephemeris_type": 0,
        "meta_classification_type": "U",
        "meta_norad_cat_id": 41028,
        "meta_element_set_no": 999,
        "meta_rev_at_epoch": 3700,
        "meta_bstar": 0,
        "meta_mean_motion_dot": -2.34e-06,
        "meta_mean_motion_ddot": 0,
        "tle_line1": "1 41028U 15065A   25354.14172561 -.00000234  00000+0  00000+0 0  9996",
        "tle_line2": "2 41028   0.0303 271.3406 0002411 323.0926 359.0664  1.00272450 37003"
      },
      "geometry": {
        "type": "Point",
        "coordinates": [
          -4.554583944333681,
          0.022982408732114167
        ]
      }
    },
    {
      "type": "Feature",
      "properties": {
        "norad_id": 41174,
        "name": "GSAT0209 (GALILEO 12)",
        "group": "gnss",
        "lat": -27.581289002050095,
        "lon": -52.99233807547665,
        "alt_km": 23230.696402335074,
        "timestamp": "2025-12-20T11:30:28.620082+00:00",
        "meta_object_name": "GSAT0209 (GALILEO 12)",
        "meta_object_id": "2015-079A",
        "meta_epoch": "2025-12-17T18:49:30.009504",
        "meta_mean_motion": 1.70474581,
        "meta_eccentricity": 0.00024688,
        "meta_inclination": 55.7156,
        "meta_ra_of_asc_node": 106.2426,
        "meta_arg_of_pericenter": 347.1145,
        "meta_mean_anomaly": 12.8381,
        "meta_ephemeris_type": 0,
        "meta_classification_type": "U",
        "meta_norad_cat_id": 41174,
        "meta_element_set_no": 999,
        "meta_rev_at_epoch": 6168,
        "meta_bstar": 0,
        "meta_mean_motion_dot": -9e-08,
        "meta_mean_motion_ddot": 0,
        "tle_line1": "1 41174U 15079A   25351.78437511 -.00000009  00000+0  00000+0 0  9999",
        "tle_line2": "2 41174  55.7156 106.2426 0002468 347.1145  12.8381  1.70474581 61685"
      },
      "geometry": {
        "type": "Point",
        "coordinates": [
          -52.99233807547665,
          -27.581289002050095
        ]
      }
    },
    {
      "type": "Feature",
      "properties": {
        "norad_id": 41175,
        "name": "GSAT0208 (GALILEO 11)",
        "group": "gnss",
        "lat": 54.212068954648146,
        "lon": 177.06666405827576,
        "alt_km": 23215.118762975984,
        "timestamp": "2025-12-20T11:30:28.620095+00:00",
        "meta_object_name": "GSAT0208 (GALILEO 11)",
        "meta_object_id": "2015-079B",
        "meta_epoch": "2025-12-18T00:06:32.261184",
        "meta_mean_motion": 1.70474394,
        "meta_eccentricity": 0.00019057,
        "meta_inclination": 55.7144,
        "meta_ra_of_asc_node": 106.2337,
        "meta_arg_of_pericenter": 356.5595,
        "meta_mean_anomaly": 3.3982,
        "meta_ephemeris_type": 0,
        "meta_classification_type": "U",
        "meta_norad_cat_id": 41175,
        "meta_element_set_no": 999,
        "meta_rev_at_epoch": 6210,
        "meta_bstar": 0,
        "meta_mean_motion_dot": -8e-08,
        "meta_mean_motion_ddot": 0,
        "tle_line1": "1 41175U 15079B   25352.00454006 -.00000008  00000+0  00000+0 0  9993",
        "tle_line2": "2 41175  55.7144 106.2337 0001905 356.5595   3.3982  1.70474394 62104"
      },
      "geometry": {
        "type": "Point",
        "coordinates": [
          177.06666405827576,
          54.212068954648146
        ]
      }
    },
    {
      "type": "Feature",
      "properties": {
        "norad_id": 41241,
        "name": "IRNSS-1E",
        "group": "gnss",
        "lat": -23.973979508747117,
        "lon": 18.880805285021935,
        "alt_km": 35839.30680221732,
        "timestamp": "2025-12-20T11:30:28.620108+00:00",
        "meta_object_name": "IRNSS-1E",
        "meta_object_id": "2016-003A",
        "meta_epoch": "2025-12-18T14:48:50.843232",
        "meta_mean_motion": 1.00271358,
        "meta_eccentricity": 0.00216611,
        "meta_inclination": 32.8383,
        "meta_ra_of_asc_node": 62.3675,
        "meta_arg_of_pericenter": 188.4275,
        "meta_mean_anomaly": 170.6574,
        "meta_ephemeris_type": 0,
        "meta_classification_type": "U",
        "meta_norad_cat_id": 41241,
        "meta_element_set_no": 999,
        "meta_rev_at_epoch": 3626,
        "meta_bstar": 0,
        "meta_mean_motion_dot": -3.05e-06,
        "meta_mean_motion_ddot": 0,
        "tle_line1": "1 41241U 16003A   25352.61725513 -.00000305  00000+0  00000+0 0  9996",
        "tle_line2": "2 41241  32.8383  62.3675 0021661 188.4275 170.6574  1.00271358 36265"
      },
      "geometry": {
        "type": "Point",
        "coordinates": [
          18.880805285021935,
          -23.973979508747117
        ]
      }
    },
    {
      "type": "Feature",
      "properties": {
        "norad_id": 41328,
        "name": "GPS BIIF-12 (PRN 32)",
        "group": "gnss",
        "lat": 53.3496144454794,
        "lon": 164.381750894072,
        "alt_km": 20415.066361115005,
        "timestamp": "2025-12-20T11:30:28.620120+00:00",
        "meta_object_name": "GPS BIIF-12 (PRN 32)",
        "meta_object_id": "2016-007A",
        "meta_epoch": "2025-12-19T20:56:37.582080",
        "meta_mean_motion": 2.00560395,
        "meta_eccentricity": 0.0092529,
        "meta_inclination": 55.41,
        "meta_ra_of_asc_node": 96.5739,
        "meta_arg_of_pericenter": 243.7509,
        "meta_mean_anomaly": 115.2864,
        "meta_ephemeris_type": 0,
        "meta_classification_type": "U",
        "meta_norad_cat_id": 41328,
        "meta_element_set_no": 999,
        "meta_rev_at_epoch": 7224,
        "meta_bstar": 0,
        "meta_mean_motion_dot": -2.3e-07,
        "meta_mean_motion_ddot": 0,
        "tle_line1": "1 41328U 16007A   25353.87265720 -.00000023  00000+0  00000+0 0  9991",
        "tle_line2": "2 41328  55.4100  96.5739 0092529 243.7509 115.2864  2.00560395 72243"
      },
      "geometry": {
        "type": "Point",
        "coordinates": [
          164.381750894072,
          53.3496144454794
        ]
      }
    }
  ]
}